{
    "links": {
        "self": "http://www.neowsapp.com/rest/v1/neo/3801997?api_key=iIulBulltgU6a56xZRHN4H3l9WmuAYTsLGpBGhQ2"
    },
    "id": "3801997",
    "neo_reference_id": "3801997",
    "name": "(2018 EC9)",
    "designation": "2018 EC9",
    "nasa_jpl_url": "http://ssd.jpl.nasa.gov/sbdb.cgi?sstr=3801997",
    "absolute_magnitude_h": 24.1,
    "estimated_diameter": {
        "kilometers": {
            "estimated_diameter_min": 0.040230458,
            "estimated_diameter_max": 0.0899580388
        },
        "meters": {
            "estimated_diameter_min": 40.2304579834,
            "estimated_diameter_max": 89.9580388169
        },
        "miles": {
            "estimated_diameter_min": 0.0249980399,
            "estimated_diameter_max": 0.0558973165
        },
        "feet": {
            "estimated_diameter_min": 131.9896957704,
            "estimated_diameter_max": 295.1379320721
        }
    },
    "is_potentially_hazardous_asteroid": false,
    "close_approach_data": [
        {
            "close_approach_date": "2018-03-12",
            "close_approach_date_full": "2018-Mar-12 21:36",
            "epoch_date_close_approach": 1520890560000,
            "relative_velocity": {
                "kilometers_per_second": "10.3126167943",
                "kilometers_per_hour": "37125.4204595851",
                "miles_per_hour": "23068.292507235"
            },
            "miss_distance": {
                "astronomical": "0.1455026958",
                "lunar": "56.6005486662",
                "kilometers": "21766893.370937946",
                "miles": "13525320.3632618148"
            },
            "orbiting_body": "Earth"
        }
    ],
    "orbital_data": {
        "orbit_id": "5",
        "orbit_determination_date": "2018-04-09 06:30:26",
        "first_observation_date": "2018-03-14",
        "last_observation_date": "2018-04-09",
        "data_arc_in_days": 26,
        "observations_used": 35,
        "orbit_uncertainty": "8",
        "minimum_orbit_intersection": ".0209824",
        "jupiter_tisserand_invariant": "3.778",
        "epoch_osculation": "2458197.5",
        "eccentricity": ".475757620626292",
        "semi_major_axis": "1.920186321382479",
        "inclination": "2.417873197728582",
        "ascending_node_longitude": "308.7792743798123",
        "orbital_period": "971.8818782268415",
        "perihelion_distance": "1.006643045962398",
        "perihelion_argument": "186.6138968134541",
        "aphelion_distance": "2.833729596802559",
        "perihelion_time": "2458165.035458383320",
        "mean_anomaly": "12.02536567852019",
        "mean_motion": ".3704153848992484",
        "equinox": "J2000",
        "orbit_class": {
            "orbit_class_type": "APO",
            "orbit_class_description": "Near-Earth asteroid orbits which cross the Earth’s orbit similar to that of 1862 Apollo",
            "orbit_class_range": "a (semi-major axis) > 1.0 AU; q (perihelion) < 1.017 AU"
        }
    },
    "is_sentry_object": false
}